[{"OBJECT_NAME":"STARLINK-36979","OBJECT_ID":"2026-039L","EPOCH":"2026-03-05T04:00:01.999584","MEAN_MOTION":15.98699891,"ECCENTRICITY":0.0001818,"INCLINATION":42.9976,"RA_OF_ASC_NODE":82.9792,"ARG_OF_PERICENTER":268.5276,"MEAN_ANOMALY":137.8449,"EPHEMERIS_TYPE":0,"CLASSIFICATION_TYPE":"U","NORAD_CAT_ID":67996,"ELEMENT_SET_NO":999,"REV_AT_EPOCH":215,"BSTAR":-0.0030434,"MEAN_MOTION_DOT":-0.01500274,"MEAN_MOTION_DDOT":0.0006793},{"OBJECT_NAME":"STARLINK-36994","OBJECT_ID":"2026-039M","EPOCH":"2026-03-05T04:00:01.999584","MEAN_MOTION":15.99112275,"ECCENTRICITY":0.0001674,"INCLINATION":42.9976,"RA_OF_ASC_NODE":82.9673,"ARG_OF_PERICENTER":273.1925,"MEAN_ANOMALY":137.835,"EPHEMERIS_TYPE":0,"CLASSIFICATION_TYPE":"U","NORAD_CAT_ID":67997,"ELEMENT_SET_NO":999,"REV_AT_EPOCH":215,"BSTAR":-0.0029503,"MEAN_MOTION_DOT":-0.01488792,"MEAN_MOTION_DDOT":0.00067271},{"OBJECT_NAME":"STARLINK-36988","OBJECT_ID":"2026-039N","EPOCH":"2026-03-05T04:00:01.999584","MEAN_MOTION":15.98980071,"ECCENTRICITY":0.0001772,"INCLINATION":42.9978,"RA_OF_ASC_NODE":82.9711,"ARG_OF_PERICENTER":268.0007,"MEAN_ANOMALY":141.5546,"EPHEMERIS_TYPE":0,"CLASSIFICATION_TYPE":"U","NORAD_CAT_ID":67998,"ELEMENT_SET_NO":999,"REV_AT_EPOCH":215,"BSTAR":-0.0029798,"MEAN_MOTION_DOT":-0.01492457,"MEAN_MOTION_DDOT":0.00067481},{"OBJECT_NAME":"STARLINK-36926","OBJECT_ID":"2026-039P","EPOCH":"2026-03-05T04:00:01.999584","MEAN_MOTION":15.99254425,"ECCENTRICITY":0.0001853,"INCLINATION":42.9978,"RA_OF_ASC_NODE":82.9636,"ARG_OF_PERICENTER":268.8415,"MEAN_ANOMALY":143.7381,"EPHEMERIS_TYPE":0,"CLASSIFICATION_TYPE":"U","NORAD_CAT_ID":67999,"ELEMENT_SET_NO":999,"REV_AT_EPOCH":215,"BSTAR":-0.0029427,"MEAN_MOTION_DOT":-0.01496929,"MEAN_MOTION_DDOT":0.00068052},{"OBJECT_NAME":"STARLINK-36931","OBJECT_ID":"2026-039Q","EPOCH":"2026-03-05T04:00:01.999584","MEAN_MOTION":15.99368132,"ECCENTRICITY":0.0001752,"INCLINATION":42.9979,"RA_OF_ASC_NODE":82.9607,"ARG_OF_PERICENTER":270.5293,"MEAN_ANOMALY":143.2346,"EPHEMERIS_TYPE":0,"CLASSIFICATION_TYPE":"U","NORAD_CAT_ID":68000,"ELEMENT_SET_NO":999,"REV_AT_EPOCH":215,"BSTAR":-0.0029094,"MEAN_MOTION_DOT":-0.01489677,"MEAN_MOTION_DDOT":0.00067529},{"OBJECT_NAME":"STARLINK-36903","OBJECT_ID":"2026-039R","EPOCH":"2026-03-05T04:00:01.999584","MEAN_MOTION":15.99497797,"ECCENTRICITY":0.0001756,"INCLINATION":42.998,"RA_OF_ASC_NODE":82.9567,"ARG_OF_PERICENTER":269.0671,"MEAN_ANOMALY":146.2956,"EPHEMERIS_TYPE":0,"CLASSIFICATION_TYPE":"U","NORAD_CAT_ID":68001,"ELEMENT_SET_NO":999,"REV_AT_EPOCH":215,"BSTAR":-0.0028447,"MEAN_MOTION_DOT":-0.01467606,"MEAN_MOTION_DDOT":0.00065792},{"OBJECT_NAME":"STARLINK-36898","OBJECT_ID":"2026-039S","EPOCH":"2026-03-05T04:00:01.999584","MEAN_MOTION":15.99747539,"ECCENTRICITY":0.0001825,"INCLINATION":42.9979,"RA_OF_ASC_NODE":82.9487,"ARG_OF_PERICENTER":267.0897,"MEAN_ANOMALY":151.2905,"EPHEMERIS_TYPE":0,"CLASSIFICATION_TYPE":"U","NORAD_CAT_ID":68002,"ELEMENT_SET_NO":999,"REV_AT_EPOCH":215,"BSTAR":-0.0027534,"MEAN_MOTION_DOT":-0.01441288,"MEAN_MOTION_DDOT":0.00063811},{"OBJECT_NAME":"STARLINK-36862","OBJECT_ID":"2026-039T","EPOCH":"2026-03-05T04:00:01.999584","MEAN_MOTION":16.00007235,"ECCENTRICITY":0.000175,"INCLINATION":42.9979,"RA_OF_ASC_NODE":82.9417,"ARG_OF_PERICENTER":269.5391,"MEAN_ANOMALY":151.5925,"EPHEMERIS_TYPE":0,"CLASSIFICATION_TYPE":"U","NORAD_CAT_ID":68003,"ELEMENT_SET_NO":999,"REV_AT_EPOCH":215,"BSTAR":-0.0027587,"MEAN_MOTION_DOT":-0.01465368,"MEAN_MOTION_DDOT":0.00065968},{"OBJECT_NAME":"STARLINK-36888","OBJECT_ID":"2026-039U","EPOCH":"2026-03-05T04:00:01.999584","MEAN_MOTION":15.99621101,"ECCENTRICITY":0.000174,"INCLINATION":42.998,"RA_OF_ASC_NODE":82.953,"ARG_OF_PERICENTER":268.248,"MEAN_ANOMALY":148.5816,"EPHEMERIS_TYPE":0,"CLASSIFICATION_TYPE":"U","NORAD_CAT_ID":68004,"ELEMENT_SET_NO":999,"REV_AT_EPOCH":215,"BSTAR":-0.0028156,"MEAN_MOTION_DOT":-0.01462943,"MEAN_MOTION_DDOT":0.00065495},{"OBJECT_NAME":"STARLINK-36910","OBJECT_ID":"2026-039V","EPOCH":"2026-03-05T04:00:01.999584","MEAN_MOTION":15.99892975,"ECCENTRICITY":0.000181,"INCLINATION":42.9979,"RA_OF_ASC_NODE":82.9451,"ARG_OF_PERICENTER":269.6825,"MEAN_ANOMALY":150.1588,"EPHEMERIS_TYPE":0,"CLASSIFICATION_TYPE":"U","NORAD_CAT_ID":68005,"ELEMENT_SET_NO":999,"REV_AT_EPOCH":215,"BSTAR":-0.0027669,"MEAN_MOTION_DOT":-0.014602,"MEAN_MOTION_DDOT":0.0006546},{"OBJECT_NAME":"STARLINK-36889","OBJECT_ID":"2026-039W","EPOCH":"2026-03-05T04:00:01.999584","MEAN_MOTION":16.001327,"ECCENTRICITY":0.0001793,"INCLINATION":42.9979,"RA_OF_ASC_NODE":82.938,"ARG_OF_PERICENTER":272.7199,"MEAN_ANOMALY":149.7634,"EPHEMERIS_TYPE":0,"CLASSIFICATION_TYPE":"U","NORAD_CAT_ID":68006,"ELEMENT_SET_NO":999,"REV_AT_EPOCH":215,"BSTAR":-0.0027237,"MEAN_MOTION_DOT":-0.01457361,"MEAN_MOTION_DDOT":0.00065396},{"OBJECT_NAME":"STARLINK-36592","OBJECT_ID":"2026-039X","EPOCH":"2026-03-05T04:00:01.999584","MEAN_MOTION":16.00253032,"ECCENTRICITY":0.0001802,"INCLINATION":42.9978,"RA_OF_ASC_NODE":82.9351,"ARG_OF_PERICENTER":269.069,"MEAN_ANOMALY":154.7696,"EPHEMERIS_TYPE":0,"CLASSIFICATION_TYPE":"U","NORAD_CAT_ID":68007,"ELEMENT_SET_NO":999,"REV_AT_EPOCH":215,"BSTAR":-0.0026985,"MEAN_MOTION_DOT":-0.01453934,"MEAN_MOTION_DDOT":0.00065198},{"OBJECT_NAME":"STARLINK-36911","OBJECT_ID":"2026-039Y","EPOCH":"2026-03-05T04:00:01.999584","MEAN_MOTION":16.00350003,"ECCENTRICITY":0.0001778,"INCLINATION":42.9979,"RA_OF_ASC_NODE":82.9313,"ARG_OF_PERICENTER":267.8026,"MEAN_ANOMALY":157.5042,"EPHEMERIS_TYPE":0,"CLASSIFICATION_TYPE":"U","NORAD_CAT_ID":68008,"ELEMENT_SET_NO":999,"REV_AT_EPOCH":215,"BSTAR":-0.0025993,"MEAN_MOTION_DOT":-0.01408897,"MEAN_MOTION_DDOT":0.00061601},{"OBJECT_NAME":"STARLINK-36956","OBJECT_ID":"2026-039Z","EPOCH":"2026-03-05T04:00:01.999584","MEAN_MOTION":16.00499852,"ECCENTRICITY":0.0001687,"INCLINATION":42.9978,"RA_OF_ASC_NODE":82.9277,"ARG_OF_PERICENTER":273.1919,"MEAN_ANOMALY":153.4542,"EPHEMERIS_TYPE":0,"CLASSIFICATION_TYPE":"U","NORAD_CAT_ID":68009,"ELEMENT_SET_NO":999,"REV_AT_EPOCH":215,"BSTAR":-0.0026284,"MEAN_MOTION_DOT":-0.01436684,"MEAN_MOTION_DDOT":0.00063955},{"OBJECT_NAME":"STARLINK-36953","OBJECT_ID":"2026-039AA","EPOCH":"2026-03-05T04:00:01.999584","MEAN_MOTION":16.00764623,"ECCENTRICITY":0.0001708,"INCLINATION":42.9977,"RA_OF_ASC_NODE":82.9199,"ARG_OF_PERICENTER":268.3442,"MEAN_ANOMALY":161.3294,"EPHEMERIS_TYPE":0,"CLASSIFICATION_TYPE":"U","NORAD_CAT_ID":68010,"ELEMENT_SET_NO":999,"REV_AT_EPOCH":215,"BSTAR":-0.002598,"MEAN_MOTION_DOT":-0.01441885,"MEAN_MOTION_DDOT":0.00064567},{"OBJECT_NAME":"STARLINK-36991","OBJECT_ID":"2026-039AB","EPOCH":"2026-03-05T04:00:01.999584","MEAN_MOTION":16.0090455,"ECCENTRICITY":0.0001799,"INCLINATION":42.9977,"RA_OF_ASC_NODE":82.9164,"ARG_OF_PERICENTER":271.5785,"MEAN_ANOMALY":159.5508,"EPHEMERIS_TYPE":0,"CLASSIFICATION_TYPE":"U","NORAD_CAT_ID":68011,"ELEMENT_SET_NO":999,"REV_AT_EPOCH":215,"BSTAR":-0.0025721,"MEAN_MOTION_DOT":-0.01439226,"MEAN_MOTION_DDOT":0.00064446}]
